[
   {
      "tle_1": "1 56204U 23054AC  23334.73653880  .00010712  00000+0  42191-3 0  9996",
      "tle_2": "2 56204  97.3879 227.5990 0013876 138.1327 222.0975 15.25695519 35559",
      "satellite_name": "FACSAT-2"
   },
   {
      "satellite_name": "ISS (ZARYA)",
      "tle_1": "1 25544U 98067A   23334.88360323  .00024407  00000+0  43434-3 0  9995",
      "tle_2": "2 25544  51.6428 222.8885 0000854   1.5392 103.8408 15.49998542427643"
   }
]